[{"OBJECT_ID":"2002-002A","OBJECT_NAME":"INSAT 3C","NORAD_CAT_ID":"27298","OBJECT_TYPE":"PAYLOAD","PERIOD":"1436.105","INCLINATION":"0.0153","APOGEE":"35803.369","PERIGEE":"35770.177","ECCENTRICITY":"0.0003936","MEAN_MOTION":"1.00271156","TLE_LINE1":"1 27298U 02002A   16238.86269574 -.00000104 +00000-0 +00000-0 0  9995","TLE_LINE2":"2 27298 000.0153 126.2727 0003936 005.8586 226.9576 01.00271156053489","LAUNCH_DATE":"2002-01-23","LAUNCH_SITE":"FRENCH GUIANA","OWNER":"INDIA","ORBIT_TYPE":"Geosynchronous","OPERATIONAL_STATUS":"Operational","satInfo":{"lng":76.60582966195408,"lat":-1.9218160645036864,"elevation":-10.444026745544953,"azimuth":238.3941703380459,"range":42863.86262164248,"height":35799.27716849615,"velocity":3.073752602443979},"x":348,"y":-83},{"OBJECT_ID":"2002-006A","OBJECT_NAME":"ECHOSTAR 7","NORAD_CAT_ID":"27378","OBJECT_TYPE":"PAYLOAD","PERIOD":"1436.114","INCLINATION":"0.0549","APOGEE":"35790.878","PERIGEE":"35783.001","ECCENTRICITY":"9.34e-05","MEAN_MOTION":"1.00270561","TLE_LINE1":"1 27378U 02006A   16239.53749924 -.00000029  00000-0  00000+0 0  9990","TLE_LINE2":"2 27378   0.0549 291.8608 0000934 257.2291 220.7813  1.00270561 53154","LAUNCH_DATE":"2002-02-21","LAUNCH_SITE":"AIR FORCE EASTERN TEST RANGE","OWNER":"UNITED STATES OF AMERICA","ORBIT_TYPE":"Geosynchronous","OPERATIONAL_STATUS":"Operational","satInfo":{"lng":-107.18325156768148,"lat":-2.1511827015495806,"elevation":-10.671655487481962,"azimuth":62.18325156768143,"range":42865.28634597724,"height":35775.451141743266,"velocity":3.075222728679991},"x":-342,"y":106},{"OBJECT_ID":"2002-007A","OBJECT_NAME":"INTELSAT 904","NORAD_CAT_ID":"27380","OBJECT_TYPE":"PAYLOAD","PERIOD":"1436.102","INCLINATION":"0.0431","APOGEE":"35799.284","PERIGEE":"35774.136","ECCENTRICITY":"0.0002982","MEAN_MOTION":"1.0027138","TLE_LINE1":"1 27380U 02007A   16239.03591009  .00000021  00000-0  00000+0 0  9999","TLE_LINE2":"2 27380   0.0431 301.6136 0002982 225.5305 240.4861  1.00271380 53165","LAUNCH_DATE":"2002-02-23","LAUNCH_SITE":"FRENCH GUIANA","OWNER":"INTERNATIONAL TELECOMMUNICATIONS SATELLITE ORGANIZATION (INTELSAT)","ORBIT_TYPE":"Geosynchronous","OPERATIONAL_STATUS":"Operational","satInfo":{"lng":90.26994899859268,"lat":1.9995702607497672,"elevation":-6.613436578768084,"azimuth":224.73005100140728,"range":42432.88469726938,"height":35798.04569707785,"velocity":3.073849015558839},"x":358,"y":2},{"OBJECT_ID":"2002-015A","OBJECT_NAME":"JCSAT 8","NORAD_CAT_ID":"27399","OBJECT_TYPE":"PAYLOAD","PERIOD":"1436.101","INCLINATION":"0.025","APOGEE":"35797.358","PERIGEE":"35776.023","ECCENTRICITY":"0.000253","MEAN_MOTION":"1.00271449","TLE_LINE1":"1 27399U 02015A   16238.77769523 -.00000193  00000-0  00000+0 0  9997","TLE_LINE2":"2 27399   0.0250 104.0794 0002530 124.0257 180.3159  1.00271449 52704","LAUNCH_DATE":"2002-03-29","LAUNCH_SITE":"FRENCH GUIANA","OWNER":"JAPAN","ORBIT_TYPE":"Geosynchronous","OPERATIONAL_STATUS":"Operational","satInfo":{"lng":-134.6846245479031,"lat":2.1476833203243006,"elevation":-6.464351572597516,"azimuth":89.68462454790308,"range":42434.401711369675,"height":35816.080171789166,"velocity":3.073620013692885},"x":-255,"y":252},{"OBJECT_ID":"2002-016A","OBJECT_NAME":"INTELSAT 903","NORAD_CAT_ID":"27403","OBJECT_TYPE":"PAYLOAD","PERIOD":"1436.099","INCLINATION":"0.0078","APOGEE":"35800.058","PERIGEE":"35773.250","ECCENTRICITY":"0.0003179","MEAN_MOTION":"1.00271579","TLE_LINE1":"1 27403U 02016A   16238.09684933 -.00000264  00000-0  00000+0 0  9999","TLE_LINE2":"2 27403   0.0078 104.5832 0003179  58.6247 170.9362  1.00271579 52713","LAUNCH_DATE":"2002-03-30","LAUNCH_SITE":"TYURATAM MISSILE AND SPACE COMPLEX","OWNER":"INTERNATIONAL TELECOMMUNICATIONS SATELLITE ORGANIZATION (INTELSAT)","ORBIT_TYPE":"Geosynchronous","OPERATIONAL_STATUS":"Operational","satInfo":{"lng":-42.60688697961171,"lat":0.7928377402895602,"elevation":-7.8021315138450715,"azimuth":357.6068869796117,"range":42537.08336700839,"height":35769.20272613995,"velocity":3.0755533543934384},"x":-242,"y":-263},{"OBJECT_ID":"2002-019A","OBJECT_NAME":"NSS 7","NORAD_CAT_ID":"27414","OBJECT_TYPE":"PAYLOAD","PERIOD":"1436.081","INCLINATION":"1.2784","APOGEE":"35797.676","PERIGEE":"35774.924","ECCENTRICITY":"0.0002698","MEAN_MOTION":"1.00272844","TLE_LINE1":"1 27414U 02019A   16237.36734859 -.00000179  00000-0  00000+0 0  9991","TLE_LINE2":"2 27414   1.2784  84.6927 0002698  66.5346 294.0832  1.00272844 52624","LAUNCH_DATE":"2002-04-16","LAUNCH_SITE":"FRENCH GUIANA","OWNER":"SOCIÉTÉ EUROPÉENNE DES SATELLITES","ORBIT_TYPE":"Geosynchronous","OPERATIONAL_STATUS":"Operational","satInfo":{"lng":-94.80508556906854,"lat":2.8362614225125666,"elevation":-5.802053922971762,"azimuth":49.80508556906852,"range":42287.565428004295,"height":35744.33978034689,"velocity":3.0766236028357135},"x":-356,"y":30},{"OBJECT_ID":"2002-023A","OBJECT_NAME":"DIRECTV 5 (TEMPO 1)","NORAD_CAT_ID":"27426","OBJECT_TYPE":"PAYLOAD","PERIOD":"1436.123","INCLINATION":"0.0106","APOGEE":"35801.393","PERIGEE":"35772.855","ECCENTRICITY":"0.0003384","MEAN_MOTION":"1.00269904","TLE_LINE1":"1 27426U 02023A   16237.38068569 -.00000080  00000-0  00000+0 0  9990","TLE_LINE2":"2 27426   0.0106 112.8829 0003384  59.6624 187.4560  1.00269904 52370","LAUNCH_DATE":"2002-05-07","LAUNCH_SITE":"TYURATAM MISSILE AND SPACE COMPLEX","OWNER":"UNITED STATES OF AMERICA","ORBIT_TYPE":"Geosynchronous","OPERATIONAL_STATUS":"Operational","satInfo":{"lng":-106.12923294786349,"lat":2.206632024797756,"elevation":-6.415966266031116,"azimuth":61.12923294786344,"range":42381.44325352147,"height":35769.08552879429,"velocity":3.075853423395305},"x":-344,"y":99},{"OBJECT_ID":"2002-027A","OBJECT_NAME":"INTELSAT 905","NORAD_CAT_ID":"27438","OBJECT_TYPE":"PAYLOAD","PERIOD":"1436.056","INCLINATION":"0.0229","APOGEE":"35797.830","PERIGEE":"35773.780","ECCENTRICITY":"0.0002852","MEAN_MOTION":"1.00274608","TLE_LINE1":"1 27438U 02027A   16238.13496269 -.00000210  00000-0  00000+0 0  9998","TLE_LINE2":"2 27438   0.0229 237.7028 0002852 266.6281 213.5733  1.00274608 52038","LAUNCH_DATE":"2002-06-05","LAUNCH_SITE":"FRENCH GUIANA","OWNER":"INTERNATIONAL TELECOMMUNICATIONS SATELLITE ORGANIZATION (INTELSAT)","ORBIT_TYPE":"Geosynchronous","OPERATIONAL_STATUS":"Operational","satInfo":{"lng":-71.21139163683206,"lat":-0.05450209137448961,"elevation":-8.633796924938329,"azimuth":26.211391636832033,"range":42614.043764195754,"height":35753.02358929919,"velocity":3.0761669442511934},"x":-338,"y":-115},{"OBJECT_ID":"2002-030A","OBJECT_NAME":"GALAXY 3C","NORAD_CAT_ID":"27445","OBJECT_TYPE":"PAYLOAD","PERIOD":"1436.105","INCLINATION":"0.0082","APOGEE":"35793.620","PERIGEE":"35779.899","ECCENTRICITY":"0.0001627","MEAN_MOTION":"1.00271203","TLE_LINE1":"1 27445U 02030A   16239.52678022 -.00000180  00000-0  00000+0 0  9999","TLE_LINE2":"2 27445   0.0082 118.3857 0001627 341.3158 330.0746  1.00271203 52048","LAUNCH_DATE":"2002-06-15","LAUNCH_SITE":"SEA LAUNCH","OWNER":"UNITED STATES OF AMERICA","ORBIT_TYPE":"Geosynchronous","OPERATIONAL_STATUS":"Operational","satInfo":{"lng":-104.50336406365636,"lat":2.1060042358115694,"elevation":-6.5108737271977075,"azimuth":59.50336406365631,"range":42411.670340812525,"height":35788.44575330354,"velocity":3.074730342446147},"x":-346,"y":90},{"OBJECT_ID":"2002-030B","OBJECT_NAME":"BLOCK DM-SL R/B","NORAD_CAT_ID":"27446","OBJECT_TYPE":"ROCKET BODY","PERIOD":"738.851","INCLINATION":"0.6485","APOGEE":"40997.238","PERIGEE":"391.879","ECCENTRICITY":"0.749932","MEAN_MOTION":"1.94897177","TLE_LINE1":"1 27446U 02030B   16238.83949537 +.00000377 +00000-0 +11524-2 0  9998","TLE_LINE2":"2 27446 000.6485 270.3695 7499320 273.9589 160.2195 01.94897177100678","LAUNCH_DATE":"2002-06-15","LAUNCH_SITE":"SEA LAUNCH","OWNER":"SEA LAUNCH DEMO","ORBIT_TYPE":"Highly Elliptical Orbit","OPERATIONAL_STATUS":"N/A, derelict rocket body","satInfo":{"lng":104.47872917924313,"lat":0.10734709494172837,"elevation":-7.8932605382005105,"azimuth":210.52127082075685,"range":45674.856943080296,"height":38864.05847797626,"velocity":1.6890318851993276},"x":376,"y":97},{"OBJECT_ID":"2002-035A","OBJECT_NAME":"EUTE 5 WEST A (STELLAT5)","NORAD_CAT_ID":"27460","OBJECT_TYPE":"PAYLOAD","PERIOD":"1436.112","INCLINATION":"0.0512","APOGEE":"35806.850","PERIGEE":"35766.945","ECCENTRICITY":"0.0004732","MEAN_MOTION":"1.00270711","TLE_LINE1":"1 27460U 02035A   16239.08405093 -.00000070  00000-0  00000+0 0  9996","TLE_LINE2":"2 27460   0.0512 321.6063 0004732 201.1467 197.2562  1.00270711 51835","LAUNCH_DATE":"2002-07-05","LAUNCH_SITE":"FRENCH GUIANA","OWNER":"EUROPEAN TELECOMMUNICATIONS SATELLITE ORGANIZATION (EUTELSAT)","ORBIT_TYPE":"Geosynchronous","OPERATIONAL_STATUS":"Operational","satInfo":{"lng":47.95441045606422,"lat":0.8179802945139519,"elevation":-7.764678558212323,"azimuth":267.04558954393576,"range":42597.50049291576,"height":35833.09779673493,"velocity":3.072368372820591},"x":266,"y":-240},{"OBJECT_ID":"2002-038A","OBJECT_NAME":"EUTE 8 WEST C (HB 6)","NORAD_CAT_ID":"27499","OBJECT_TYPE":"PAYLOAD","PERIOD":"1449.739","INCLINATION":"0.1661","APOGEE":"36063.630","PERIGEE":"36042.813","ECCENTRICITY":"0.0002453","MEAN_MOTION":"0.99328159","TLE_LINE1":"1 27499U 02038A   16239.04767520 -.00000127  00000-0  00000+0 0  9996","TLE_LINE2":"2 27499   0.1661  83.0253 0002453 108.9497 168.0124  0.99328159 51307","LAUNCH_DATE":"2002-08-21","LAUNCH_SITE":"AIR FORCE EASTERN TEST RANGE","OWNER":"EUROPEAN TELECOMMUNICATIONS SATELLITE ORGANIZATION (EUTELSAT)","ORBIT_TYPE":"Geosynchronous","OPERATIONAL_STATUS":"Nonoperational","satInfo":{"lng":50.66736167880179,"lat":-2.4701745474294143,"elevation":-10.925376149912037,"azimuth":264.33263832119815,"range":43182.441422717486,"height":36061.01206764541,"velocity":3.0644966010293415},"x":279,"y":-229}]